METHANESAT              
1 59101U 24043D   25141.08150925  .00002438  00000+0  22668-3 0  9995
2 59101  97.7962 267.2905 0009912 234.0096 126.0206 14.95258632 66008
